ONEWEB-0665             
1 55825U 23029AF  25160.79016219  .00000226  00000+0  57407-3 0  9995
2 55825  87.9042   3.8153 0001710  96.4029 263.7296 13.14504686110483
ONEWEB-0666             
1 55826U 23029AG  25160.91627936  .00000001  00000+0 -30158-4 0  9991
2 55826  87.9261 348.6267 0001941  78.5855 281.5497 13.20773083112015
ONEWEB-0667             
1 55827U 23029AH  25160.90996622 -.00000008  00000+0 -51128-4 0  9990
2 55827  87.9262 348.5600 0001652  94.7502 265.3820 13.20772463112005
ONEWEB-0669             
1 55828U 23029AJ  25160.90523792 -.00000036  00000+0 -11996-3 0  9994
2 55828  87.9260 348.5964 0001598  66.3679 293.7622 13.20771564112002
ONEWEB-0670             
1 55829U 23029AK  25160.92019607  .00000124  00000+0  29939-3 0  9994
2 55829  87.9041   3.8070 0001396  92.8161 267.3129 13.14504784110520
ONEWEB-0671             
1 55830U 23029AL  25160.65141646 -.00000014  00000+0 -66213-4 0  9992
2 55830  87.9228  19.0427 0001611  88.6127 271.5190 13.19726045109769
ONEWEB-0672             
1 55831U 23029AM  25160.90049119 -.00000012  00000+0 -60445-4 0  9992
2 55831  87.9261 348.5831 0001972  81.2894 278.8463 13.20769900112009
ONEWEB-0673             
1 55832U 23029AN  25160.62772484  .00000077  00000+0  16020-3 0  9998
2 55832  87.9225  19.0107 0001945  92.0828 268.0528 13.19726694109766
